IRIDIUM 106             
1 41917U 17003A   24224.92228705  .00001312  00000+0  46112-3 0  9995
2 41917  86.3997  10.2864 0001933  81.4304 278.7110 14.34225451396569
IRIDIUM 103             
1 41918U 17003B   24224.90960623  .00000751  00000+0  26117-3 0  9995
2 41918  86.3998  10.1935 0002516  89.4303 270.7181 14.34222067396586
IRIDIUM 109             
1 41919U 17003C   24224.91595047  .00001278  00000+0  44934-3 0  9993
2 41919  86.3999  10.2390 0002436  99.0692 261.0780 14.34218525396552
IRIDIUM 102             
1 41920U 17003D   24224.81446725  .00001226  00000+0  43048-3 0  9990
2 41920  86.3999  10.2193 0002078  96.6808 263.4624 14.34220966396622
IRIDIUM 105             
1 41921U 17003E   24224.64564056  .00001253  00000+0  44001-3 0  9990
2 41921  86.4019 338.7419 0002304  90.0790 270.0670 14.34232501398452
IRIDIUM 104             
1 41922U 17003F   24224.89692192  .00000207  00000+0  66965-4 0  9993
2 41922  86.3999  10.2169 0002376  97.0663 263.0803 14.34218524396624
IRIDIUM 114             
1 41923U 17003G   24224.90326796  .00000402  00000+0  13641-3 0  9999
2 41923  86.4001  10.2006 0002011  89.0530 271.0896 14.34214440396602
IRIDIUM 108             
1 41924U 17003H   24224.79201663  .00000065  00000+0  16088-4 0  9996
2 41924  86.4011 338.6019 0001927  94.1201 266.0215 14.34216995398442
